OBJECT_NAME,OBJECT_ID,EPOCH,MEAN_MOTION,ECCENTRICITY,INCLINATION,RA_OF_ASC_NODE,ARG_OF_PERICENTER,MEAN_ANOMALY,EPHEMERIS_TYPE,CLASSIFICATION_TYPE,NORAD_CAT_ID,ELEMENT_SET_NO,REV_AT_EPOCH,BSTAR,MEAN_MOTION_DOT,MEAN_MOTION_DDOT
STARLINK-4284,2022-076AP,2026-06-11T22:05:30.820704,15.08826018,.0001325,53.1593,21.0279,93.3084,266.8059,0,U,53023,999,21721,-.14262117E-4,-.515E-5,0
STARLINK-4289,2022-076AQ,2026-06-11T22:10:48.084960,15.08835520,.00013131,53.1600,21.0198,88.2124,271.9018,0,U,53024,999,21721,.46982404E-4,.46E-5,0
STARLINK-4218,2022-076AR,2026-06-11T22:00:12.282048,15.08833505,.00012759,53.1597,21.0529,86.6791,273.4347,0,U,53025,999,21721,.42022275E-4,.381E-5,0
STARLINK-4119,2022-076AS,2026-06-11T22:06:51.750720,15.08831653,.00013343,53.1601,20.9269,86.3961,273.7183,0,U,53026,999,21721,.65785653E-4,.759E-5,0
STARLINK-4158,2022-076AT,2026-06-11T21:44:18.404448,15.08832480,.00012454,53.1590,21.1018,86.4766,273.6368,0,U,53027,999,21721,.11818082E-4,-.1E-5,0
STARLINK-4143,2022-076AV,2026-06-11T21:24:26.243424,15.08831186,.00013814,53.1596,11.1647,83.4125,276.7024,0,U,53029,999,21734,.32020348E-4,.222E-5,0
STARLINK-4160,2022-076AW,2026-06-11T22:21:25.862112,15.08830176,.00013024,53.1593,21.1801,93.8617,266.2523,0,U,53030,999,21721,-.35013932E-4,-.845E-5,0
STARLINK-4137,2022-076AX,2026-06-12T06:40:51.242304,15.08833190,.00012287,53.1595,9.4269,84.5336,275.5795,0,U,53031,999,21740,.303128E-6,-.283E-5,0
STARLINK-4115,2022-076AY,2026-06-11T20:14:13.209216,15.08834272,.0001181,53.1587,21.3820,80.1334,279.9790,0,U,53032,999,21720,-.7937153E-5,-.414E-5,0
STARLINK-4167,2022-076AZ,2026-06-11T21:13:50.119968,15.08826794,.00013418,53.1597,11.1987,93.1451,266.9694,0,U,53033,999,21734,.61970968E-4,.698E-5,0
STARLINK-4151,2022-076BA,2026-06-11T21:25:49.411200,15.08833102,.00013397,53.1597,11.2091,90.6420,269.4725,0,U,53034,999,21734,.28544798E-4,.166E-5,0
STARLINK-4157,2022-076BB,2026-06-12T06:35:34.111104,15.08821542,.00012956,53.1594,9.4435,73.6606,286.4528,0,U,53035,999,21740,-.37498378E-4,-.884E-5,0
STARLINK-4155,2022-076BC,2026-06-12T06:30:14.952096,15.08835411,.00012293,53.1596,9.4605,90.8892,269.2240,0,U,53036,999,21740,.57780467E-4,.632E-5,0
STARLINK-4153,2022-076BD,2026-06-12T06:24:57.169440,15.08833658,.00016586,53.1604,9.4772,90.3926,269.7255,0,U,53037,999,21740,.69465986E-4,.817E-5,0
STARLINK-4156,2022-076BE,2026-06-12T06:19:39.169056,15.08831851,.00013971,53.1608,9.4933,88.3843,271.7308,0,U,53038,999,21740,.8362517E-5,-.155E-5,0
STARLINK-4362,2022-077A,2026-06-12T05:09:17.948448,15.05652660,.00016,97.3716,342.3881,83.5172,276.6238,0,U,53043,999,21513,-.49482317E-4,-.771E-5,0
STARLINK-4350,2022-077C,2026-06-12T05:39:09.280512,15.05674361,.00014167,97.3725,343.5684,110.3846,249.7534,0,U,53045,999,21521,-.28459028E-3,-.4164E-4,0
STARLINK-4331,2022-077D,2026-06-12T06:15:04.673664,15.05662107,.00019071,97.3729,343.6853,49.0430,311.0962,0,U,53046,999,21522,-.99280235E-4,-.149E-4,0
STARLINK-4352,2022-077E,2026-06-12T05:57:09.249408,15.05665113,.00010587,97.3719,342.4800,109.9520,250.1821,0,U,53047,999,21514,-.10960683E-3,-.1639E-4,0
STARLINK-4355,2022-077F,2026-06-12T05:19:13.735200,15.05651759,.0001322,97.3714,343.5822,99.4261,260.7116,0,U,53048,999,21520,.3025398E-5,-.14E-6,0
STARLINK-4345,2022-077G,2026-06-12T06:13:06.294432,15.05635492,.00013099,97.3723,342.4522,91.6915,268.4462,0,U,53049,999,21513,.33049814E-3,.4712E-4,0
STARLINK-4343,2022-077H,2026-06-12T05:51:07.405344,15.05650277,.00012392,97.3709,343.5477,104.5249,255.6116,0,U,53050,999,21520,.82084713E-4,.1127E-4,0
STARLINK-4336,2022-077J,2026-06-12T04:57:21.317472,15.05653291,.00019878,97.3728,342.3654,82.9114,277.2340,0,U,53051,999,21512,-.62211594E-4,-.955E-5,0
STARLINK-4341,2022-077K,2026-06-12T01:29:59.312256,15.05655368,.00007952,97.3728,342.2627,83.9065,276.2253,0,U,53052,999,21510,-.6681668E-4,-.1021E-4,0
STARLINK-4337,2022-077L,2026-06-12T06:29:04.613856,15.05661262,.00025659,97.3717,342.4244,65.2551,294.8943,0,U,53053,999,21513,-.45508344E-4,-.714E-5,0
STARLINK-4339,2022-077M,2026-06-12T01:47:53.695392,15.05651720,.00011544,97.3728,343.4603,101.3478,258.7879,0,U,53054,999,21518,-.15396291E-4,-.28E-5,0
STARLINK-4338,2022-077N,2026-06-12T05:43:09.489792,15.05661049,.00006816,97.3708,343.5301,94.8808,265.2497,0,U,53055,999,21520,-.5651297E-5,-.139E-5,0
STARLINK-4314,2022-077P,2026-06-12T05:23:12.604416,15.05662165,.00012861,97.3702,343.5551,115.3011,244.8350,0,U,53056,999,21520,-.11508465E-3,-.1718E-4,0
STARLINK-4252,2022-077Q,2026-06-12T05:59:06.467424,15.05670559,.00022718,97.3719,343.6592,108.0515,252.0960,0,U,53057,999,21521,-.19626698E-3,-.289E-4,0
STARLINK-4317,2022-077R,2026-06-12T05:05:19.439520,15.05650182,.00017225,97.3714,342.4985,50.9380,309.2001,0,U,53058,999,21514,-.17732617E-4,-.313E-5,0
STARLINK-4320,2022-077S,2026-06-12T05:49:10.385184,15.05668210,.00011475,97.3727,342.4405,155.7039,204.4243,0,U,53059,999,21513,.20429353E-4,.237E-5,0
STARLINK-4305,2022-077T,2026-06-12T01:37:57.751392,15.05656494,.00011612,97.3720,342.2287,86.4321,273.7039,0,U,53060,999,21510,-.100207E-3,-.1503E-4,0
STARLINK-4308,2022-077U,2026-06-12T05:41:12.061824,15.05658993,.00015038,97.3732,342.4427,89.0471,271.0929,0,U,53061,999,21513,-.4795784E-4,-.75E-5,0
STARLINK-4311,2022-077V,2026-06-12T05:01:19.854912,15.05667377,.0002256,97.3716,342.4890,102.5461,257.6019,0,U,53062,999,21513,-.24551677E-3,-.36E-4,0
STARLINK-4307,2022-077W,2026-06-12T01:35:55.294080,15.05657388,.00009261,97.3726,343.3525,84.2392,275.8941,0,U,53063,999,8676,-.93674717E-4,-.1409E-4,0
STARLINK-4313,2022-077X,2026-06-12T05:03:16.805952,15.05648727,.00021156,97.3711,343.5487,79.6386,280.5080,0,U,53064,999,21520,.29551869E-4,.369E-5,0
STARLINK-4312,2022-077Y,2026-06-12T01:34:00.757056,15.05655279,.00013196,97.3726,342.3600,88.8396,271.2983,0,U,53065,999,21511,-.26290147E-4,-.437E-5,0
STARLINK-4309,2022-077Z,2026-06-12T02:05:52.848672,15.05659348,.00016088,97.3708,342.3324,82.7657,277.3753,0,U,53066,999,21511,.12193396E-3,.1703E-4,0
STARLINK-4325,2022-077AB,2026-06-12T01:43:54.412320,15.05647543,.00012043,97.3721,343.4138,96.5928,263.5436,0,U,53068,999,21518,-.1802888E-5,-.83E-6,0
STARLINK-4323,2022-077AC,2026-06-12T05:45:11.206656,15.05652218,.0001521,97.3735,342.4151,97.9470,262.1930,0,U,53069,999,21513,.5537218E-4,.742E-5,0
STARLINK-4342,2022-077AD,2026-06-12T05:35:12.302592,15.05650231,.00010971,97.3703,343.6543,95.4194,264.7158,0,U,53070,999,21521,.86317728E-4,.1188E-4,0
STARLINK-4328,2022-077AE,2026-06-12T05:31:11.359776,15.05659792,.0001507,97.3705,343.6402,88.4336,271.7064,0,U,53071,999,21521,.69188985E-4,.941E-5,0
STARLINK-4344,2022-077AF,2026-06-12T05:11:13.039296,15.05672572,.00014618,97.3731,343.5177,108.1847,251.9540,0,U,53072,999,21520,.42501114E-4,.556E-5,0
STARLINK-4346,2022-077AG,2026-06-12T06:54:58.413312,15.22614664,.0004491,97.6355,352.7578,247.9137,112.1623,0,U,53073,999,21568,.61264142E-3,.14189E-3,0
STARLINK-4310,2022-077AH,2026-06-12T08:00:01.999872,15.19788068,.00017845,97.5790,344.5876,76.1235,165.1273,0,U,53074,999,590,.3812321E-1,.878243E-2,0
STARLINK-4348,2022-077AJ,2026-06-12T05:53:10.339584,15.05642972,.00013796,97.3725,342.5382,70.4397,289.6979,0,U,53075,999,21514,.16908266E-3,.2382E-4,0
STARLINK-4347,2022-077AK,2026-06-12T05:29:13.437600,15.05661352,.0001415,97.3721,342.4240,106.8055,253.3327,0,U,53076,999,21513,.70155295E-4,.955E-5,0
STARLINK-4322,2022-077AM,2026-06-12T06:01:09.392160,15.05653654,.00019921,97.3716,342.5351,110.2618,249.8824,0,U,53078,999,21514,.5341146E-4,.713E-5,0
STARLINK-4327,2022-077AN,2026-06-12T05:55:06.684096,15.05659254,.00016681,97.3723,343.5949,127.7221,232.4158,0,U,53079,999,21521,-.29367853E-4,-.481E-5,0
STARLINK-4330,2022-077AP,2026-06-12T06:19:02.751456,15.05631434,.00014566,97.3718,343.5803,106.6599,253.4789,0,U,53080,999,21521,.30525766E-3,.4347E-4,0
STARLINK-4326,2022-077AQ,2026-06-12T05:13:17.309280,15.05650193,.00021617,97.3713,342.4062,98.8794,261.2678,0,U,53081,999,21513,.48304215E-4,.64E-5,0
STARLINK-4321,2022-077AR,2026-06-12T05:37:12.192960,15.05664480,.00019275,97.3717,342.3885,100.7506,259.3938,0,U,53082,999,21513,-.12538817E-3,-.1867E-4,0
STARLINK-4251,2022-077AS,2026-06-12T06:11:03.586560,15.05666717,.00024675,97.3726,343.5452,42.1488,317.9929,0,U,53083,999,21521,-.94258492E-4,-.1418E-4,0
STARLINK-4319,2022-077AT,2026-06-12T06:07:04.690560,15.05651603,.00018302,97.3716,343.5758,86.3004,273.8433,0,U,53084,999,21521,.95998883E-4,.1328E-4,0
STARLINK-4324,2022-077AU,2026-06-12T01:39:54.658368,15.05635514,.00012715,97.3732,343.3573,165.7622,194.3641,0,U,53085,999,21518,.15761119E-4,.17E-5,0
STARLINK-4318,2022-077AV,2026-06-12T05:33:14.401152,15.05653970,.00013159,97.3729,342.5375,109.6395,250.4975,0,U,53086,999,21514,-.65677748E-4,-.1005E-4,0
STARLINK-4333,2022-077AX,2026-06-12T05:25:14.672928,15.05655182,.00015982,97.3703,342.3811,91.7472,268.3938,0,U,53088,999,21513,.11528189E-4,.109E-5,0
TIANLIAN 2-03,2022-078A,2026-06-12T06:24:18.379296,1.00271516,.00015543,0.6595,76.9416,324.7446,325.5766,0,U,53100,999,1449,0,.87E-6,0
LARES-2,2022-080A,2026-06-11T09:04:16.246848,6.38965132,.0005423,70.1631,307.3215,335.1501,24.8749,0,U,53105,999,9129,0,-.14E-6,0
GREENCUBE (IO-117),2022-080E,2026-06-01T11:09:37.753056,6.42583280,.00088692,70.1435,303.7143,293.3663,66.6064,0,U,53109,999,9105,0,-.3E-7,0
SUPERVIEW NEO-2 01,2022-082A,2026-06-12T05:53:59.261856,15.24506880,.00017293,97.3930,173.2661,88.5169,271.6267,0,U,53128,999,21745,.1027151E-3,.2454E-4,0
SUPERVIEW NEO-2 02,2022-082C,2026-06-12T06:27:34.239456,15.24504603,.00016804,97.3935,173.3449,88.7777,271.3654,0,U,53130,999,21746,.29580616E-4,.657E-5,0
STARLINK-4150,2022-083C,2026-06-12T03:11:31.884288,15.08831868,.00015129,53.1611,110.0830,89.8405,270.2760,0,U,53134,999,21547,.14804472E-4,-.52E-6,0
STARLINK-4023,2022-083D,2026-06-12T03:22:07.854816,15.08830148,.0001427,53.1610,110.0508,88.3390,271.7765,0,U,53135,999,21646,.19602542E-4,.24E-6,0
